NUSAT-1 (FRESCO)        
1 41557U 16033B   21324.13657677  .00003517  00000+0  12157-3 0  9993
2 41557  97.3939  57.2898 0013585  47.7807  79.1302 15.30501768305330
BEESAT-4                
1 41619U 16040W   21323.93515278  .00002929  00000+0  11434-3 0  9990
2 41619  97.2499  15.5912 0011569 135.2764 224.9410 15.26618723288726
CAS-2T & KS-1Q          
1 41847U 16066G   21323.89519248  .00000200  00000+0  39324-4 0  9996
2 41847  98.5823  23.5207 0365936 116.2227 247.7060 14.38286613264227
NAYIF-1 (EO-88)         
1 42017U 17008BX  21323.62942435  .00003816  00000+0  13634-3 0  9993
2 42017  97.2994  28.4094 0004126 279.3497  80.7277 15.29425213264969
ZHUHAI-1 02 (CAS-4B)    
1 42759U 17034B   21324.23660932  .00001029  00000+0  74517-4 0  9994
2 42759  43.0184  44.4563 0007325  48.8512  41.7292 15.10551538244706
ZHUHAI-1 01 (CAS-4A)    
1 42761U 17034D   21324.27557375  .00001099  00000+0  78527-4 0  9999
2 42761  43.0186  43.1821 0007636  51.8253 349.1270 15.10638847244716
MAX VALIER SAT          
1 42778U 17036P   21323.85928574  .00001874  00000+0  79358-4 0  9999
2 42778  97.2361   7.2698 0011259 356.7780   3.3383 15.24311455244959
RADFXSAT (FOX-1B)       
1 43017U 17073E   21323.99905751  .00000819  00000+0  67428-4 0  9997
2 43017  97.6925 221.7181 0254192 152.3791 209.1197 14.79954124216125
FOX-1D (AO-92)          
1 43137U 18004AC  21323.84683491  .00002345  00000+0  93716-4 0  9998
2 43137  97.3937  36.2377 0009236  32.9740 327.2073 15.26085423214356
DIWATA-2B               
1 43678U 18084H   21324.00026605  .00000584  00000+0  63587-4 0  9999
2 43678  97.9435  90.2761 0008444 256.2871 103.7390 14.91838781166627
ES'HAIL 2               
1 43700U 18090A   21324.09493899  .00000160  00000+0  00000+0 0  9990
2 43700   0.0158 305.4974 0002420 314.4462 219.3808  1.00270689 11178
FOX-1CLIFF (AO-95)      
1 43770U 18099N   21323.41911933  .00000770  00000+0  74476-4 0  9995
2 43770  97.6497  30.0644 0012905 258.0594 101.9180 14.95549980161611
ITASAT 1                
1 43786U 18099AE  21323.91124694  .00000153  00000+0  18840-4 0  9995
2 43786  97.6514  31.3308 0013830 248.7358 111.2387 14.95811003161724
JY1SAT (JO-97)          
1 43803U 18099AX  21323.91434711  .00000407  00000+0  41223-4 0  9992
2 43803  97.6474  31.0721 0013821 248.1664 111.8087 14.96104434161737
UWE-4                   
1 43880U 18111E   21323.99372225  .00000388  00000+0  38572-4 0  9992
2 43880  97.6768 228.9870 0011239 307.6136  52.4065 14.97126230156353
NEXUS (FO-99)           
1 43937U 19003F   21323.58305798  .00003131  00000+0  12097-3 0  9994
2 43937  97.1586   0.4796 0022627 177.4790 182.6568 15.26725920157923
PSAT2 (NO-104)          
1 44354U 19036R   21323.89642347  .00023318  00000+0  28385-3 0  9998
2 44354  28.5247 166.3466 0299859 168.3802 192.3899 15.20294654132580
BRICSAT2 (NO-103)       
1 44355U 19036S   21324.05900143  .00046061 -60451-5  37777-3 0  9997
2 44355  28.5253  88.9374 0206277 294.7106  63.2152 15.45504148133373
JAISAT-1                
1 44419U 19038F   21324.14770341  .00001615  00000+0  91052-4 0  9995
2 44419  97.6097 288.5054 0021960 131.8696 228.4414 15.14453939131358
DUCHIFAT-3              
1 44854U 19089C   21324.19906483  .00001043  00000+0  88956-4 0  9991
2 44854  36.9643 259.4148 0009013 314.0580  45.9463 14.99803323106498
CAS-6 (TO-108)          
1 44881U 19093C   21324.21750399  .00000125  00000+0  22658-4 0  9999
2 44881  97.9139  41.2595 0015798 142.2510 217.9822 14.81511503103796
RS-44 & BREEZE-KM R/B   
1 44909U 19096E   21323.81962401  .00000031  00000+0  73273-4 0  9992
2 44909  82.5238   9.5783 0218521  89.9112 272.7027 12.79711249 88698
ORBITAL FACTORY 2 (OF-2)
1 45113U 19071C   21323.52740981  .00005658  00000+0  16120-3 0  9995
2 45113  51.6424   4.7902 0011344 130.4230 229.7745 15.37584673101014
HUSKYSAT-1 (HO-107)     
1 45119U 19071J   21324.12687420  .00004640  00000+0  13463-3 0  9993
2 45119  51.6417   1.2823 0010931 128.8457 231.3504 15.37469394101103
BY70-2                  
1 45857U 20042B   21324.09394092  .00001801  00000+0  25895-3 0  9996
2 45857  97.9743  38.1919 0012077  77.0396 283.2172 14.77581677 74526
SALSAT                  
1 46495U 20068K   21323.92428626  .00000144  00000+0  15061-4 0  9999
2 46495  97.7047 260.6025 0015551 268.6026  91.3422 15.03660240 62693
BY70-3                  
1 46839U 20079N   21324.17902410  .00005150  00000+0  15261-3 0  9992
2 46839  97.2270  34.9564 0007242  21.6143  30.4201 15.35266465 58086
RADFXSAT-2 (AO-109)     
1 47311U 21002C   21323.85909740  .00002179  00000+0  10383-3 0  9990
2 47311  60.6864  69.1624 0036773 126.7853 233.6618 15.22420198 46535
UVSQ-SAT                
1 47438U 21006AB  21324.09532837  .00001433  00000+0  83293-4 0  9993
2 47438  97.4689  22.4119 0011047 281.9029  78.0964 15.13643563 45598
DIY-1 (ARDUIQUBE)       
1 47963U 21022AH  21323.99427009  .00003264  00000+0  21309-3 0  9999
2 47963  97.5460 223.5427 0020212 128.7253 231.5786 15.08379840 35333
